CUTE-1 (CO-55)          
1 27844U 03031E   26138.95430454  .00000183  00000+0  98258-4 0  9993
2 27844  98.6744 147.8808 0008279 270.5578  89.4652 14.24315949187519
CUBESAT XI-IV (CO-57)   
1 27848U 03031J   26138.29557300  .00000143  00000+0  81891-4 0  9995
2 27848  98.6776 146.9670 0008279 294.1039  65.9273 14.23603354187123
CUBESAT XI-V            
1 28895U 05043F   26138.36943048  .00000767  00000+0  12888-3 0  9990
2 28895  98.2951 293.3724 0012904 302.7751  57.2212 14.72544221 97365
CUTE-1.7+APD II (CO-65) 
1 32785U 08021C   26138.94529129  .00003477  00000+0  22304-3 0  9991
2 32785  97.8270 119.7660 0010492 122.3360 237.8885 15.09146079980788
CANX-2                  
1 32790U 08021H   26138.44559663  .00001678  00000+0  12145-3 0  9991
2 32790  97.8621 117.6550 0011514 137.7182 222.4934 15.05378382980333
SEEDS II (CO-66)        
1 32791U 08021J   26138.94317955  .00012123  00000+0  39897-3 0  9993
2 32791  97.7522 135.4711 0004771  72.6344 287.5418 15.31658311982810
SWISSCUBE               
1 35932U 09051B   26138.95381580  .00000632  00000+0  13468-3 0  9991
2 35932  98.4055  46.3316 0005793 313.4304  46.6414 14.62418523884887
BEESAT-1                
1 35933U 09051C   26138.46894893  .00000509  00000+0  11221-3 0  9992
2 35933  98.3984  45.5356 0004642 334.4729  25.6242 14.61666380884846
ITUPSAT1                
1 35935U 09051E   26138.70792872  .00000464  00000+0  10600-3 0  9995
2 35935  98.4069  45.0013 0007034 340.8774  19.2160 14.60391062884431
TISAT 1                 
1 36799U 10035E   26138.57691143  .00012041  00000+0  41117-3 0  9993
2 36799  98.0707  82.5316 0003020  42.8279 317.3195 15.30483291863179
AEROCUBE 4.5A           
1 38767U 12048K   26138.40536026  .00115844  00000+0  62899-3 0  9991
2 38767  64.6279 134.3990 0018474 216.1971 143.7934 15.79194241367939
STRAND-1                
1 39090U 13009E   26138.74506132  .00000155  00000+0  66607-4 0  9991
2 39090  98.3916 319.7055 0007856 326.1849  33.8836 14.37144142692838
BRITE-AUSTRIA           
1 39091U 13009F   26138.74528813  .00000095  00000+0  46946-4 0  9999
2 39091  98.3987 318.9111 0009572 334.6124  25.4591 14.36529217692821
NEE-01 PEGASO           
1 39151U 13018B   26138.31910358  .00001240  00000+0  12358-3 0  9990
2 39151  98.1184 281.4928 0011350 261.1687  98.8246 14.93496678706240
POPACS 2                
1 39269U 13055E   26138.44354989  .00008457  00000+0  14539-3 0  9997
2 39269  80.9909 178.2246 0418590 289.4810  66.1638 14.90512798658785
POPACS 3                
1 39270U 13055F   26138.77045827  .00011402  00000+0  27095-3 0  9998
2 39270  81.0018 261.0605 0554772 159.4470 203.0046 14.55381824634279
ZACUBE-1 (TSHEPISOSAT)  
1 39417U 13066B   26138.14345683  .00003149  00000+0  24772-3 0  9995
2 39417  97.8123 100.3176 0041198 353.8882   6.1833 15.00938209676225
WNISAT-1                
1 39423U 13066H   26138.35869375  .00000283  00000+0  60820-4 0  9995
2 39423  97.7165 289.6383 0162304 326.2807  32.8149 14.58021448662380
TRITON-1                
1 39427U 13066M   26138.98595603  .00002377  00000+0  28939-3 0  9998
2 39427  97.8273  49.4584 0089509 330.6048  29.0147 14.81571007669763
GOMX-1                  
1 39430U 13066Q   26138.90425294  .00001388  00000+0  21452-3 0  9996
2 39430  97.6499 341.2144 0128958 170.8835 189.4758 14.69332579665614
CUBEBUG-2 (LO-74)       
1 39440U 13066AA  26138.58665349  .00001926  00000+0  18242-3 0  9999
2 39440  97.8896  87.4497 0059196 124.5862 236.0962 14.93510802672574
NEE-02 KRYSAOR          
1 39441U 13066AB  26138.59227368  .00000939  00000+0  10841-3 0  9996
2 39441  97.8885  78.0238 0066537 165.4651 194.8499 14.86493907671808
FUNCUBE-1 (AO-73)       
1 39444U 13066AE  26138.48756626  .00003751  00000+0  23785-3 0  9997
2 39444  97.8264 109.3260 0034896 306.8242  52.9786 15.09070822675186
UWE-3                   
1 39446U 13066AG  26138.60277945  .00002656  00000+0  23180-3 0  9997
2 39446  97.8682  94.4880 0050461  59.2487 301.3689 14.96745846673158
BRITE-CA1 (TORONTO)     
1 40020U 14033L   26138.61753219  .00000387  00000+0  65962-4 0  9990
2 40020  97.9698 268.0983 0078858  12.6212 347.6946 14.72632494637863
DUCHIFAT-1              
1 40021U 14033M   26138.93079548  .00058593  00000+0  75038-3 0  9998
2 40021  98.0491 194.1195 0006186 171.7607 188.3750 15.58987510651182
NANOSATC-BR1            
1 40024U 14033Q   26138.07395344  .00011102  00000+0  38005-3 0  9999
2 40024  98.0738 167.8159 0001653 293.1752  66.9312 15.30427931649379
QB50P1                  
1 40025U 14033R   26138.94887521  .00005296  00000+0  26586-3 0  9997
2 40025  98.0973 148.0560 0007740 337.2109  22.8778 15.17763555648597
QB50P2                  
1 40032U 14033Y   26138.70778129  .00004027  00000+0  22122-3 0  9995
2 40032  98.0753 133.7642 0005644 277.6790  82.3799 15.14744084648202
PERSEUS-M2              
1 40037U 14033AD  26138.89031743  .00001590  00000+0  14920-3 0  9993
2 40037  97.9962  88.8400 0013258  42.6966 317.5282 14.95415552646407
